[{"OBJECT_NAME":"TEVEL2-4","OBJECT_ID":"2025-052D","EPOCH":"2026-04-27T05:25:44.887008","MEAN_MOTION":15.32821412,"ECCENTRICITY":7.218e-5,"INCLINATION":97.3964,"RA_OF_ASC_NODE":13.589,"ARG_OF_PERICENTER":350.5099,"MEAN_ANOMALY":9.6129,"EPHEMERIS_TYPE":0,"CLASSIFICATION_TYPE":"U","NORAD_CAT_ID":63213,"ELEMENT_SET_NO":999,"REV_AT_EPOCH":6230,"BSTAR":0.00072510098,"MEAN_MOTION_DOT":0.00022949,"MEAN_MOTION_DDOT":0},{"OBJECT_NAME":"TEVEL2-5","OBJECT_ID":"2025-052E","EPOCH":"2026-04-27T05:47:38.957568","MEAN_MOTION":15.32675195,"ECCENTRICITY":8.456e-5,"INCLINATION":97.3961,"RA_OF_ASC_NODE":13.5656,"ARG_OF_PERICENTER":345.0641,"MEAN_ANOMALY":15.0576,"EPHEMERIS_TYPE":0,"CLASSIFICATION_TYPE":"U","NORAD_CAT_ID":63214,"ELEMENT_SET_NO":999,"REV_AT_EPOCH":6230,"BSTAR":0.00074423851,"MEAN_MOTION_DOT":0.00023451,"MEAN_MOTION_DDOT":0},{"OBJECT_NAME":"TEVEL2-6","OBJECT_ID":"2025-052F","EPOCH":"2026-04-27T04:29:36.295296","MEAN_MOTION":15.32633852,"ECCENTRICITY":9.08e-5,"INCLINATION":97.3966,"RA_OF_ASC_NODE":13.4966,"ARG_OF_PERICENTER":345.0631,"MEAN_ANOMALY":15.0584,"EPHEMERIS_TYPE":0,"CLASSIFICATION_TYPE":"U","NORAD_CAT_ID":63215,"ELEMENT_SET_NO":999,"REV_AT_EPOCH":6229,"BSTAR":0.00075307731,"MEAN_MOTION_DOT":0.00023701,"MEAN_MOTION_DDOT":0},{"OBJECT_NAME":"TEVEL2-1","OBJECT_ID":"2025-052H","EPOCH":"2026-04-27T06:21:30.084192","MEAN_MOTION":15.32162503,"ECCENTRICITY":0.00015362,"INCLINATION":97.3938,"RA_OF_ASC_NODE":13.2561,"ARG_OF_PERICENTER":0.6568,"MEAN_ANOMALY":359.4676,"EPHEMERIS_TYPE":0,"CLASSIFICATION_TYPE":"U","NORAD_CAT_ID":63217,"ELEMENT_SET_NO":999,"REV_AT_EPOCH":6229,"BSTAR":0.00072328433,"MEAN_MOTION_DOT":0.00022423,"MEAN_MOTION_DDOT":0},{"OBJECT_NAME":"TEVEL2-3","OBJECT_ID":"2025-052J","EPOCH":"2026-04-27T06:16:10.151904","MEAN_MOTION":15.32207959,"ECCENTRICITY":0.00015554,"INCLINATION":97.3942,"RA_OF_ASC_NODE":13.2684,"ARG_OF_PERICENTER":2.2746,"MEAN_ANOMALY":357.8503,"EPHEMERIS_TYPE":0,"CLASSIFICATION_TYPE":"U","NORAD_CAT_ID":63218,"ELEMENT_SET_NO":999,"REV_AT_EPOCH":6229,"BSTAR":0.00073372116,"MEAN_MOTION_DOT":0.00022781,"MEAN_MOTION_DDOT":0},{"OBJECT_NAME":"TEVEL2-2","OBJECT_ID":"2025-052K","EPOCH":"2026-04-27T06:22:16.499136","MEAN_MOTION":15.32169388,"ECCENTRICITY":0.00016943,"INCLINATION":97.3937,"RA_OF_ASC_NODE":13.2585,"ARG_OF_PERICENTER":359.1819,"MEAN_ANOMALY":0.942,"EPHEMERIS_TYPE":0,"CLASSIFICATION_TYPE":"U","NORAD_CAT_ID":63219,"ELEMENT_SET_NO":999,"REV_AT_EPOCH":6229,"BSTAR":0.00076094608,"MEAN_MOTION_DOT":0.00023604,"MEAN_MOTION_DDOT":0},{"OBJECT_NAME":"TEVEL2-9","OBJECT_ID":"2025-052AD","EPOCH":"2026-04-27T04:18:32.705280","MEAN_MOTION":15.30327401,"ECCENTRICITY":0.00052311,"INCLINATION":97.4001,"RA_OF_ASC_NODE":12.652,"ARG_OF_PERICENTER":342.2767,"MEAN_ANOMALY":17.829,"EPHEMERIS_TYPE":0,"CLASSIFICATION_TYPE":"U","NORAD_CAT_ID":63237,"ELEMENT_SET_NO":999,"REV_AT_EPOCH":6222,"BSTAR":0.00073182035,"MEAN_MOTION_DOT":0.00021436,"MEAN_MOTION_DDOT":0},{"OBJECT_NAME":"TEVEL2-7","OBJECT_ID":"2025-052AE","EPOCH":"2026-04-27T05:04:20.096544","MEAN_MOTION":15.30072047,"ECCENTRICITY":0.00053089,"INCLINATION":97.4001,"RA_OF_ASC_NODE":12.6198,"ARG_OF_PERICENTER":342.2193,"MEAN_ANOMALY":17.8861,"EPHEMERIS_TYPE":0,"CLASSIFICATION_TYPE":"U","NORAD_CAT_ID":63238,"ELEMENT_SET_NO":999,"REV_AT_EPOCH":6222,"BSTAR":0.00070252535,"MEAN_MOTION_DOT":0.00020411,"MEAN_MOTION_DDOT":0},{"OBJECT_NAME":"TEVEL2-8","OBJECT_ID":"2025-052AF","EPOCH":"2026-04-27T05:15:23.143104","MEAN_MOTION":15.30053732,"ECCENTRICITY":0.00053318,"INCLINATION":97.4003,"RA_OF_ASC_NODE":12.606,"ARG_OF_PERICENTER":343.3909,"MEAN_ANOMALY":16.7156,"EPHEMERIS_TYPE":0,"CLASSIFICATION_TYPE":"U","NORAD_CAT_ID":63239,"ELEMENT_SET_NO":999,"REV_AT_EPOCH":6222,"BSTAR":0.00069930256,"MEAN_MOTION_DOT":0.00020305,"MEAN_MOTION_DDOT":0},{"OBJECT_NAME":"HADES-ICM","OBJECT_ID":"2025-052BN","EPOCH":"2026-04-26T16:29:25.837440","MEAN_MOTION":15.77342185,"ECCENTRICITY":0.00035022,"INCLINATION":97.3831,"RA_OF_ASC_NODE":19.519,"ARG_OF_PERICENTER":134.0397,"MEAN_ANOMALY":226.1158,"EPHEMERIS_TYPE":0,"CLASSIFICATION_TYPE":"U","NORAD_CAT_ID":63492,"ELEMENT_SET_NO":999,"REV_AT_EPOCH":6265,"BSTAR":0.0023247374,"MEAN_MOTION_DOT":0.00399074,"MEAN_MOTION_DDOT":0},{"OBJECT_NAME":"FORESAIL-1 PRIME","OBJECT_ID":"2025-276DS","EPOCH":"2026-04-27T04:31:59.498976","MEAN_MOTION":15.18224292,"ECCENTRICITY":8.314e-5,"INCLINATION":97.4218,"RA_OF_ASC_NODE":191.4071,"ARG_OF_PERICENTER":301.6092,"MEAN_ANOMALY":58.5061,"EPHEMERIS_TYPE":0,"CLASSIFICATION_TYPE":"U","NORAD_CAT_ID":66778,"ELEMENT_SET_NO":999,"REV_AT_EPOCH":2266,"BSTAR":0.00028842567,"MEAN_MOTION_DOT":5.836e-5,"MEAN_MOTION_DDOT":0}]
